{"type": "FeatureCollection", "features": [ {"type": "Feature", "properties": {"norad_id": 34058, "name": "COSMOS 2251 DEB", "group": "cosmos-2251-debris", "lat": -22.736126365209067, "lon": 9.718735776019152, "alt_km": 798.6420895053179, "timestamp": "2025-12-09T20:37:09.683287+00:00", "meta": {"OBJECT_NAME": "COSMOS 2251 DEB", "OBJECT_ID": "1993-036JV", "EPOCH": "2025-12-09T12:41:11.886720", "MEAN_MOTION": 13.56069347, "ECCENTRICITY": 0.03780866, "INCLINATION": 73.9315, "RA_OF_ASC_NODE": 183.3175, "ARG_OF_PERICENTER": 179.1666, "MEAN_ANOMALY": 209.6556, "EPHEMERIS_TYPE": 0, "CLASSIFICATION_TYPE": "U", "NORAD_CAT_ID": 34058, "ELEMENT_SET_NO": 999, "REV_AT_EPOCH": 83099, "BSTAR": 0.00099291425, "MEAN_MOTION_DOT": 1.081e-05, "MEAN_MOTION_DDOT": 0}, "tle": {"line1": "1 34058U 93036JV  25343.52860980  .00001081  00000+0  99291-3 0  9998", "line2": "2 34058  73.9315 183.3175 0378086 179.1666 209.6556 13.56069347830992"}}, "geometry": {"type": "Point", "coordinates": [9.718735776019152, -22.736126365209067]}}, {"type": "Feature", "properties": {"norad_id": 34059, "name": "COSMOS 2251 DEB", "group": "cosmos-2251-debris", "lat": 39.229335798414986, "lon": -1.8029826523119539, "alt_km": 721.368658571555, "timestamp": "2025-12-09T20:37:09.683298+00:00", "meta": {"OBJECT_NAME": "COSMOS 2251 DEB", "OBJECT_ID": "1993-036JW", "EPOCH": "2025-12-09T13:30:06.505920", "MEAN_MOTION": 14.52918763, "ECCENTRICITY": 0.00186981, "INCLINATION": 74.0378, "RA_OF_ASC_NODE": 192.27, "ARG_OF_PERICENTER": 269.8196, "MEAN_ANOMALY": 118.5773, "EPHEMERIS_TYPE": 0, "CLASSIFICATION_TYPE": "U", "NORAD_CAT_ID": 34059, "ELEMENT_SET_NO": 999, "REV_AT_EPOCH": 88413, "BSTAR": 0.0011177723, "MEAN_MOTION_DOT": 4.59e-05, "MEAN_MOTION_DDOT": 0}, "tle": {"line1": "1 34059U 93036JW  25343.56257530  .00004590  00000+0  11178-2 0  9999", "line2": "2 34059  74.0378 192.2700 0018698 269.8196 118.5773 14.52918763884138"}}, "geometry": {"type": "Point", "coordinates": [-1.8029826523119539, 39.229335798414986]}}, {"type": "Feature", "properties": {"norad_id": 34061, "name": "COSMOS 2251 DEB", "group": "cosmos-2251-debris", "lat": -68.92979160362803, "lon": 136.6830972266205, "alt_km": 764.2387176859647, "timestamp": "2025-12-09T20:37:09.683308+00:00", "meta": {"OBJECT_NAME": "COSMOS 2251 DEB", "OBJECT_ID": "1993-036JY", "EPOCH": "2025-12-09T04:57:02.304288", "MEAN_MOTION": 14.40344522, "ECCENTRICITY": 0.00204232, "INCLINATION": 74.0402, "RA_OF_ASC_NODE": 269.9204, "ARG_OF_PERICENTER": 347.3988, "MEAN_ANOMALY": 124.9889, "EPHEMERIS_TYPE": 0, "CLASSIFICATION_TYPE": "U", "NORAD_CAT_ID": 34061, "ELEMENT_SET_NO": 999, "REV_AT_EPOCH": 88129, "BSTAR": 0.00050866953, "MEAN_MOTION_DOT": 1.591e-05, "MEAN_MOTION_DDOT": 0}, "tle": {"line1": "1 34061U 93036JY  25343.20627667  .00001591  00000+0  50867-3 0  9992", "line2": "2 34061  74.0402 269.9204 0020423 347.3988 124.9889 14.40344522881296"}}, "geometry": {"type": "Point", "coordinates": [136.6830972266205, -68.92979160362803]}}, {"type": "Feature", "properties": {"norad_id": 34062, "name": "COSMOS 2251 DEB", "group": "cosmos-2251-debris", "lat": -17.971068866456136, "lon": 138.3699574286085, "alt_km": 663.3845541853707, "timestamp": "2025-12-09T20:37:09.683319+00:00", "meta": {"OBJECT_NAME": "COSMOS 2251 DEB", "OBJECT_ID": "1993-036JZ", "EPOCH": "2025-12-09T12:52:43.503168", "MEAN_MOTION": 14.78450102, "ECCENTRICITY": 0.00752568, "INCLINATION": 74.0279, "RA_OF_ASC_NODE": 144.3343, "ARG_OF_PERICENTER": 223.9959, "MEAN_ANOMALY": 200.7274, "EPHEMERIS_TYPE": 0, "CLASSIFICATION_TYPE": "U", "NORAD_CAT_ID": 34062, "ELEMENT_SET_NO": 999, "REV_AT_EPOCH": 88548, "BSTAR": 0.0040694353, "MEAN_MOTION_DOT": 0.00031227, "MEAN_MOTION_DDOT": 0}, "tle": {"line1": "1 34062U 93036JZ  25343.53661462  .00031227  00000+0  40694-2 0  9995", "line2": "2 34062  74.0279 144.3343 0075256 223.9959 200.7274 14.78450102885489"}}, "geometry": {"type": "Point", "coordinates": [138.3699574286085, -17.971068866456136]}}, {"type": "Feature", "properties": {"norad_id": 34064, "name": "COSMOS 2251 DEB", "group": "cosmos-2251-debris", "lat": -28.075300969113915, "lon": 104.99611996418686, "alt_km": 767.1302684260754, "timestamp": "2025-12-09T20:37:09.683329+00:00", "meta": {"OBJECT_NAME": "COSMOS 2251 DEB", "OBJECT_ID": "1993-036KB", "EPOCH": "2025-12-09T13:49:22.711584", "MEAN_MOTION": 14.42320751, "ECCENTRICITY": 0.00220132, "INCLINATION": 74.0334, "RA_OF_ASC_NODE": 276.7371, "ARG_OF_PERICENTER": 343.5614, "MEAN_ANOMALY": 196.0352, "EPHEMERIS_TYPE": 0, "CLASSIFICATION_TYPE": "U", "NORAD_CAT_ID": 34064, "ELEMENT_SET_NO": 999, "REV_AT_EPOCH": 88096, "BSTAR": 0.00095980835, "MEAN_MOTION_DOT": 3.153e-05, "MEAN_MOTION_DDOT": 0}, "tle": {"line1": "1 34064U 93036KB  25343.57595731  .00003153  00000+0  95981-3 0  9993", "line2": "2 34064  74.0334 276.7371 0022013 343.5614 196.0352 14.42320751880963"}}, "geometry": {"type": "Point", "coordinates": [104.99611996418686, -28.075300969113915]}}, {"type": "Feature", "properties": {"norad_id": 34065, "name": "COSMOS 2251 DEB", "group": "cosmos-2251-debris", "lat": -73.69620350761974, "lon": 161.57073330528232, "alt_km": 772.8388713242603, "timestamp": "2025-12-09T20:37:09.683340+00:00", "meta": {"OBJECT_NAME": "COSMOS 2251 DEB", "OBJECT_ID": "1993-036KC", "EPOCH": "2025-12-09T13:31:35.496192", "MEAN_MOTION": 14.3805755, "ECCENTRICITY": 0.00162387, "INCLINATION": 74.0359, "RA_OF_ASC_NODE": 263.9708, "ARG_OF_PERICENTER": 2.1204, "MEAN_ANOMALY": 175.3828, "EPHEMERIS_TYPE": 0, "CLASSIFICATION_TYPE": "U", "NORAD_CAT_ID": 34065, "ELEMENT_SET_NO": 999, "REV_AT_EPOCH": 88159, "BSTAR": 0.00031406996, "MEAN_MOTION_DOT": 9.26e-06, "MEAN_MOTION_DDOT": 0}, "tle": {"line1": "1 34065U 93036KC  25343.56360528  .00000926  00000+0  31407-3 0  9995", "line2": "2 34065  74.0359 263.9708 0016238   2.1204 175.3828 14.38057550881595"}}, "geometry": {"type": "Point", "coordinates": [161.57073330528232, -73.69620350761974]}}, {"type": "Feature", "properties": {"norad_id": 34070, "name": "COSMOS 2251 DEB", "group": "cosmos-2251-debris", "lat": 66.26882056068622, "lon": -98.81773186880305, "alt_km": 640.9066972771416, "timestamp": "2025-12-09T20:37:09.683351+00:00", "meta": {"OBJECT_NAME": "COSMOS 2251 DEB", "OBJECT_ID": "1993-036KH", "EPOCH": "2025-12-09T10:37:55.747776", "MEAN_MOTION": 14.76829332, "ECCENTRICITY": 0.00189349, "INCLINATION": 74.0009, "RA_OF_ASC_NODE": 122.7416, "ARG_OF_PERICENTER": 238.1647, "MEAN_ANOMALY": 178.2185, "EPHEMERIS_TYPE": 0, "CLASSIFICATION_TYPE": "U", "NORAD_CAT_ID": 34070, "ELEMENT_SET_NO": 999, "REV_AT_EPOCH": 88562, "BSTAR": 0.0038205321, "MEAN_MOTION_DOT": 0.00026978, "MEAN_MOTION_DDOT": 0}, "tle": {"line1": "1 34070U 93036KH  25343.44300634  .00026978  00000+0  38205-2 0  9997", "line2": "2 34070  74.0009 122.7416 0018934 238.1647 178.2185 14.76829332885621"}}, "geometry": {"type": "Point", "coordinates": [-98.81773186880305, 66.26882056068622]}}, {"type": "Feature", "properties": {"norad_id": 34114, "name": "COSMOS 2251 DEB", "group": "cosmos-2251-debris", "lat": 9.542318707943211, "lon": -133.46504324263907, "alt_km": 725.5250616889152, "timestamp": "2025-12-09T20:37:09.683361+00:00", "meta": {"OBJECT_NAME": "COSMOS 2251 DEB", "OBJECT_ID": "1993-036KK", "EPOCH": "2025-12-09T06:56:55.385088", "MEAN_MOTION": 14.56302129, "ECCENTRICITY": 0.0047311, "INCLINATION": 74.0585, "RA_OF_ASC_NODE": 50.3676, "ARG_OF_PERICENTER": 46.1988, "MEAN_ANOMALY": 18.2427, "EPHEMERIS_TYPE": 0, "CLASSIFICATION_TYPE": "U", "NORAD_CAT_ID": 34114, "ELEMENT_SET_NO": 999, "REV_AT_EPOCH": 87751, "BSTAR": 0.0021816, "MEAN_MOTION_DOT": 9.795e-05, "MEAN_MOTION_DDOT": 0}, "tle": {"line1": "1 34114U 93036KK  25343.28952992  .00009795  00000+0  21816-2 0  9996", "line2": "2 34114  74.0585  50.3676 0047311  46.1988  18.2427 14.56302129877518"}}, "geometry": {"type": "Point", "coordinates": [-133.46504324263907, 9.542318707943211]}}, {"type": "Feature", "properties": {"norad_id": 34115, "name": "COSMOS 2251 DEB", "group": "cosmos-2251-debris", "lat": 40.751179143269596, "lon": -98.06988901181222, "alt_km": 610.2261742439832, "timestamp": "2025-12-09T20:37:09.683372+00:00", "meta": {"OBJECT_NAME": "COSMOS 2251 DEB", "OBJECT_ID": "1993-036KL", "EPOCH": "2025-12-09T04:11:52.352736", "MEAN_MOTION": 14.79398973, "ECCENTRICITY": 0.00284205, "INCLINATION": 74.0066, "RA_OF_ASC_NODE": 248.9698, "ARG_OF_PERICENTER": 73.6091, "MEAN_ANOMALY": 286.8206, "EPHEMERIS_TYPE": 0, "CLASSIFICATION_TYPE": "U", "NORAD_CAT_ID": 34115, "ELEMENT_SET_NO": 999, "REV_AT_EPOCH": 89359, "BSTAR": 0.0012405206, "MEAN_MOTION_DOT": 9.294e-05, "MEAN_MOTION_DDOT": 0}, "tle": {"line1": "1 34115U 93036KL  25343.17491149  .00009294  00000+0  12405-2 0  9995", "line2": "2 34115  74.0066 248.9698 0028420  73.6091 286.8206 14.79398973893593"}}, "geometry": {"type": "Point", "coordinates": [-98.06988901181222, 40.751179143269596]}}, {"type": "Feature", "properties": {"norad_id": 34116, "name": "COSMOS 2251 DEB", "group": "cosmos-2251-debris", "lat": -70.77581013743446, "lon": 133.0575328715594, "alt_km": 714.7312321467916, "timestamp": "2025-12-09T20:37:09.683383+00:00", "meta": {"OBJECT_NAME": "COSMOS 2251 DEB", "OBJECT_ID": "1993-036KM", "EPOCH": "2025-12-09T12:50:01.838400", "MEAN_MOTION": 14.52947321, "ECCENTRICITY": 0.00121143, "INCLINATION": 74.04, "RA_OF_ASC_NODE": 188.8216, "ARG_OF_PERICENTER": 264.8626, "MEAN_ANOMALY": 119.8667, "EPHEMERIS_TYPE": 0, "CLASSIFICATION_TYPE": "U", "NORAD_CAT_ID": 34116, "ELEMENT_SET_NO": 999, "REV_AT_EPOCH": 88440, "BSTAR": 0.0010248658, "MEAN_MOTION_DOT": 4.203e-05, "MEAN_MOTION_DDOT": 0}, "tle": {"line1": "1 34116U 93036KM  25343.53474350  .00004203  00000+0  10249-2 0  9990", "line2": "2 34116  74.0400 188.8216 0012114 264.8626 119.8667 14.52947321884409"}}, "geometry": {"type": "Point", "coordinates": [133.0575328715594, -70.77581013743446]}}]}